{
  "norad_id": 64354,
  "name": "STARLINK-34473",
  "history": [
    {
      "epoch": "2026-03-28T22:12:25.891488Z",
      "apogee_km": 573.8535493215013,
      "perigee_km": 570.1977637641603,
      "latitude_deg": -8.577366820862762e-06,
      "longitude_deg": -173.50363721215473,
      "height_km": 574.3527715213959,
      "semi_major_axis_km": 6950.1626565428305,
      "eccentricity": 0.000263,
      "inclination_deg": 70.0023,
      "raan_deg": 345.943,
      "arg_perigee_deg": 273.1399,
      "mean_anomaly_deg": 86.9459,
      "mean_motion_rev_day": 14.98339777
    },
    {
      "epoch": "2026-03-29T03:00:49.939200Z",
      "apogee_km": 573.8380600541104,
      "perigee_km": 570.1933999624935,
      "latitude_deg": 2.8374121780393353e-05,
      "longitude_deg": 113.6932740668214,
      "height_km": 574.3887302627946,
      "semi_major_axis_km": 6950.152730008302,
      "eccentricity": 0.0002622,
      "inclination_deg": 70.0022,
      "raan_deg": 345.4375,
      "arg_perigee_deg": 271.7053,
      "mean_anomaly_deg": 88.3806,
      "mean_motion_rev_day": 14.98342987
    },
    {
      "epoch": "2026-03-30T03:02:50.386848Z",
      "apogee_km": 573.7513411505051,
      "perigee_km": 570.2443031192561,
      "latitude_deg": 5.859484892830544e-07,
      "longitude_deg": 109.67958036551649,
      "height_km": 574.3851675365576,
      "semi_major_axis_km": 6950.13482213488,
      "eccentricity": 0.0002523,
      "inclination_deg": 70.0024,
      "raan_deg": 342.9127,
      "arg_perigee_deg": 271.3008,
      "mean_anomaly_deg": 88.7862,
      "mean_motion_rev_day": 14.98348778
    }
  ]
}